SL-3 R/B                
1 19046U 88032B   23053.44343172  .00004131  00000+0  29059-3 0  9998
2 19046  97.4097  46.7193 0037757 105.1388 255.4021 15.05022184884482
SL-16 R/B               
1 19120U 88039B   23052.88162472  .00000179  00000+0  10779-3 0  9994
2 19120  71.0128 258.8482 0024070 247.4822 112.3755 14.19291699800613
COSMOS 1953             
1 19210U 88050A   23052.84205195  .00005417  00000+0  34043-3 0  9993
2 19210  82.5210 177.9686 0018959  33.0639 327.1771 15.08907186869144
SL-8 R/B                
1 19257U 88053B   23053.12465413  .00000433  00000+0  15210-3 0  9998
2 19257  74.0504 359.3552 0019119  96.6218 275.4241 14.37740948817065
COSMOS 1975             
1 19573U 88093A   23052.66331758  .00005318  00000+0  34315-3 0  9999
2 19573  82.5198 134.4970 0014716  71.7868 288.4961 15.07996630850810
SL-14 R/B               
1 19574U 88093B   23053.09993179  .00000859  00000+0  10058-3 0  9992
2 19574  82.5348   3.8236 0022976 109.6449 261.2293 14.83719225857196
SL-16 R/B               
1 19650U 88102B   23052.85867109  .00000126  00000+0  88148-4 0  9997
2 19650  71.0025 330.3424 0016669 264.4065  95.5158 14.15870670769501
INTERCOSMOS 24          
1 20261U 89080A   23053.14490702  .00000975  00000+0  28989-3 0  9995
2 20261  82.6003 106.0503 1199746 346.6931  10.4914 12.56748243526606
SL-14 R/B               
1 20262U 89080C   23053.32406311  .00001001  00000+0  30108-3 0  9996
2 20262  82.5969 166.2024 1235940 202.6251 151.5535 12.49219173520883
DELTA 2 R/B(1)          
1 20303U 89085B   23053.06459283  .00046513  00000+0  82130-3 0  9993
2 20303  35.6349 290.0782 0064711 313.2892  46.2456 15.46942057818417
DELTA 1 R/B             
1 20323U 89089B   23052.71440158  .00000728  00000+0  19579-3 0  9996
2 20323  97.0655  59.0690 0072175  30.5115 330.0251 14.48710312734627
ARIANE 40 R/B           
1 20443U 90005H   23052.81559754  .00000422  00000+0  15281-3 0  9990
2 20443  98.4530 122.2011 0009346 303.4861  56.5433 14.38392491732888
DELTA 2 R/B(1)          
1 20453U 90008B   23053.47089529  .00013921  00000+0  67235-3 0  9999
2 20453  35.6217 215.6542 0250575 237.0618 120.5771 14.94376046757259
COSMOS 2058             
1 20465U 90010A   23053.09073599  .00002953  00000+0  23603-3 0  9997
2 20465  82.4865  49.8947 0016291 131.7408 228.5212 14.99798010796143
SL-14 R/B               
1 20466U 90010B   23052.76103000  .00000655  00000+0  79853-4 0  9998
2 20466  82.5008 230.1338 0020514   4.0175 356.1199 14.81742218763729
SL-14 R/B               
1 20511U 90018B   23053.11658101  .00000881  00000+0  11211-3 0  9998
2 20511  82.5256 180.5777 0018203 140.9905  31.6346 14.80397030779120
HST                     
1 20580U 90037B   23053.08333543  .00005621  00000+0  30801-3 0  9994
2 20580  28.4706 313.2661 0002299 216.7368 276.0351 15.12056081604284
SL-16 R/B               
1 20625U 90046B   23052.60510024 -.00000034  00000+0  71740-5 0  9995
2 20625  70.9994 112.9291 0015034 204.1149 155.9272 14.14733289691092
COSMOS 2084             
1 20663U 90055A   23053.47567310  .00003190  00000+0  26637-3 0  9991
2 20663  62.7921 132.9709 0132649  74.7640 286.8076 14.94127481769640
SL-6 R/B(2)             
1 20666U 90055D   23053.08312351  .00003125  00000+0  26126-3 0  9995
2 20666  62.7841  48.1459 0130918  96.4261 265.1761 14.94296223771017
SL-8 R/B                
1 20775U 90078B   23052.77654480  .00012059  00000+0  54189-3 0  9994
2 20775  82.9233 134.8214 0530081  25.6869 336.9654 14.45290858646453
SL-8 R/B                
1 21088U 91006B   23052.75031920  .00000051  00000+0  36245-4 0  9993
2 21088  82.9396 277.0774 0021284 269.6630 158.5839 13.77241422611001
OKEAN-3                 
1 21397U 91039A   23053.10524798  .00003882  00000+0  35443-3 0  9995
2 21397  82.5244 324.8106 0018531 124.5725 235.7248 14.94695142719538
COSMOS 2151             
1 21422U 91042A   23052.78785866  .00002173  00000+0  20462-3 0  9993
2 21422  82.4970  70.0759 0013477 192.3290 167.7603 14.93346119696887
SL-14 R/B               
1 21423U 91042B   23052.85762599  .00000800  00000+0  10225-3 0  9991
2 21423  82.4961 181.3944 0016224 292.0482  67.9008 14.80133166688517
ERS-1                   
1 21574U 91050A   23052.87377492  .00000420  00000+0  15327-3 0  9999
2 21574  98.7310  30.1806 0031641 258.2146 101.5490 14.38042084655864
ARIANE 40 R/B           
1 21610U 91050F   23052.79398774  .00000494  00000+0  16614-3 0  9998
2 21610  98.3510 122.0919 0003256 175.3020 184.8201 14.41245892658740
INTERCOSMOS 25          
1 21819U 91086A   23052.81449252  .00001023  00000+0  20289-3 0  9991
2 21819  82.6002 259.2854 1511758 343.5117  12.1464 12.06478981362294
SL-8 R/B                
1 21876U 92008B   23052.92875324  .00000138  00000+0  12640-3 0  9992
2 21876  82.9294  14.3764 0034940   1.7280  52.5050 13.75737127556548
SL-8 R/B                
1 21938U 92020B   23052.84783311  .00000169  00000+0  16000-3 0  9998
2 21938  82.9265 259.4127 0029595 158.5658 212.3460 13.75328828548298
COSMOS 2219             
1 22219U 92076A   23052.80231380  .00000130  00000+0  93532-4 0  9996
2 22219  71.0614 181.7645 0015843  99.5746 260.7167 14.13741644561219
SL-16 R/B               
1 22220U 92076B   23052.90894056  .00000135  00000+0  91724-4 0  9990
2 22220  71.0025   9.6957 0013510 339.7542  82.5979 14.16538419564371
COSMOS 2221             
1 22236U 92080A   23053.02373359  .00002185  00000+0  22831-3 0  9993
2 22236  82.5040 257.5532 0015339 312.6295  47.3629 14.89185092636018
SL-16 R/B               
1 22285U 92093B   23052.76599277 -.00000177  00000+0 -66575-4 0  9995
2 22285  71.0213 177.9143 0005762 226.2418 133.8228 14.15126118555835
COSMOS 2228             
1 22286U 92094A   23052.88775392  .00003000  00000+0  31123-3 0  9990
2 22286  82.5190 215.0671 0021757  67.0406 293.3105 14.89490060610140
SL-16 R/B               
1 22566U 93016B   23052.63889190 -.00000224  00000+0 -91084-4 0  9991
2 22566  71.0080  30.2811 0012003 225.2551 134.7595 14.15036544544844
COSMOS 2242             
1 22626U 93024A   23052.97021177  .00002406  00000+0  25065-3 0  9994
2 22626  82.5182 243.5474 0019819  67.5894 292.7421 14.89280709614851
SL-16 R/B               
1 22803U 93059B   23053.47392475  .00000070  00000+0  58680-4 0  9992
2 22803  70.9899 193.8581 0014972 105.5092 254.7686 14.16909748522375
ARIANE 40 R/B           
1 22830U 93061H   23053.17208538  .00000353  00000+0  14882-3 0  9997
2 22830  98.6310 120.0362 0010217 329.8792  30.1802 14.31682983535247
COSMOS 2278             
1 23087U 94023A   23052.85644223 -.00000103  00000+0 -29177-4 0  9999
2 23087  71.0554 340.4009 0011285 282.1539  77.8319 14.13919259487627
SL-16 R/B               
1 23088U 94023B   23052.91162638  .00000254  00000+0  15647-3 0  9993
2 23088  70.9982 245.2275 0004262 218.3430 141.7390 14.14747251488832
SL-16 R/B               
1 23343U 94074B   23052.89713209  .00000737  00000+0  11093-3 0  9993
2 23343  97.8580 104.9766 0005840 221.7866 312.5910 14.77273745522980
SL-16 R/B               
1 23405U 94077B   23053.04109034 -.00000162  00000+0 -58684-4 0  9990
2 23405  70.9833 170.6629 0001683 345.1044  15.0029 14.15291316459206
ERS-2                   
1 23560U 95021A   23053.01374078  .00033666  00000+0  10534-2 0  9994
2 23560  98.5119 358.6918 0006086  75.8964 284.2950 15.33045724491479
ARIANE 40+ R/B          
1 23561U 95021B   23053.15929528  .00000475  00000+0  17057-3 0  9996
2 23561  98.5896 116.0310 0006363 215.5729 169.3605 14.38316432459604
SL-16 R/B               
1 23705U 95058B   23052.92116300  .00000045  00000+0  47564-4 0  9996
2 23705  71.0253 353.8264 0012214   2.7287 357.3900 14.15211742410543
SL-16 R/B               
1 24298U 96051B   23052.88308559  .00000112  00000+0  87100-4 0  9997
2 24298  70.8297   4.5145 0016074 326.7598  33.2510 14.12487551364653
ORBVIEW 2 (SEASTAR)     
1 24883U 97037A   23053.33351179  .00000538  00000+0  20919-3 0  9995
2 24883  98.7056 182.9542 0003294  96.2554 263.9006 14.33924224349378
SL-16 R/B               
1 25400U 98043G   23053.43902328  .00000126  00000+0  72046-4 0  9990
2 25400  98.6974 352.1081 0010069   8.4311 351.7036 14.25570831280864
SL-16 R/B               
1 25407U 98045B   23052.90432137 -.00000081  00000+0 -17085-4 0  9990
2 25407  71.0132 359.0520 0009851 277.5098  82.4906 14.15892211269717
ISS (ZARYA)             
1 25544U 98067A   23053.69333167  .00016305  00000+0  30104-3 0  9996
2 25544  51.6388 175.6411 0005259  17.1242 123.2448 15.49224525384037
CZ-4B R/B               
1 25732U 99025C   23053.13491550  .00000106  00000+0  73413-4 0  9993
2 25732  98.8215  98.2879 0036347 294.2556 131.1074 14.17784571230774
OKEAN-O                 
1 25860U 99039A   23053.15473973  .00000953  00000+0  14188-3 0  9994
2 25860  98.1066  99.7434 0001142  67.6595 292.4736 14.77249400270207
SL-16 R/B               
1 25861U 99039B   23052.85985573  .00000889  00000+0  12731-3 0  9995
2 25861  98.1544  88.6731 0014241 248.8873 111.0816 14.79113710272362
DELTA 2 R/B             
1 25876U 99041E   23053.36517069  .00004147  00000+0  73333-3 0  9998
2 25876  51.7665  39.6552 0526961 323.7959  32.8350 14.05808301206387
HELIOS 1B               
1 25977U 99064A   23053.12963405  .00001156  00000+0  14885-3 0  9992
2 25977  98.3058 262.2740 0002395  75.8252 284.3226 14.83139798251587
TERRA                   
1 25994U 99068A   23053.47070813  .00000752  00000+0  16965-3 0  9997
2 25994  98.1077 124.6411 0002781  81.3165 334.6504 14.59050506233057
SL-16 R/B               
1 26070U 00006B   23052.91486395 -.00000006  00000+0  21475-4 0  9997
2 26070  71.0017 274.9605 0014344  71.3774 288.8905 14.15527293191214
TITAN 4B R/B            
1 26474U 00047B   23053.07831979  .00003489  00000+0  29620-3 0  9996
2 26474  67.9922 256.9391 0055895 204.6523 155.1948 14.97952086225899
